{
  "type": "FeatureCollection",
  "features": [
    {
      "type": "Feature",
      "properties": {},
      "geometry": {
        "coordinates": [
          [
            -75.82364044577298,
            6.5537993237552
          ],
          [
            -75.82309697027458,
            6.554699196197788
          ],
          [
            -75.82331838621802,
            6.555092473273845
          ],
          [
            -75.8232915479223,
            6.555232453174781
          ],
          [
            -75.8232848383478,
            6.555425758688415
          ],
          [
            -75.82327812877404,
            6.555665724049433
          ],
          [
            -75.82329545347592,
            6.555830973750773
          ],
          [
            -75.8233691085526,
            6.55595389128689
          ],
          [
            -75.82347941599551,
            6.556045668967627
          ],
          [
            -75.82366057449498,
            6.5560989945468435
          ],
          [
            -75.82382160427244,
            6.556145654424242
          ],
          [
            -75.82396250532717,
            6.5561723172095725
          ],
          [
            -75.82414366382665,
            6.5562989654186055
          ],
          [
            -75.82422417871538,
            6.556472273443049
          ],
          [
            -75.82431140317787,
            6.556732235366397
          ],
          [
            -75.82444559465883,
            6.557012194208937
          ],
          [
            -75.82461333401082,
            6.557185501984648
          ],
          [
            -75.82488842654651,
            6.5572921528942345
          ],
          [
            -75.82515680950848,
            6.557505454644229
          ],
          [
            -75.82553590044255,
            6.55787206666966
          ],
          [
            -75.82627563098208,
            6.55862528682097
          ],
          [
            -75.82661194838161,
            6.558835255326279
          ],
          [
            -75.82680002612948,
            6.558927741414903
          ],
          [
            -75.82700823259931,
            6.558980233545288
          ],
          [
            -75.82724149513399,
            6.559114796400428
          ],
          [
            -75.82746804809565,
            6.559435997642675
          ],
          [
            -75.8275951368638,
            6.55967877291726
          ],
          [
            -75.82772222563197,
            6.559921548191845
          ],
          [
            -75.82795331279733,
            6.560104332630386
          ],
          [
            -75.82832530101821,
            6.560193798043163
          ],
          [
            -75.82860335520209,
            6.560303260453555
          ],
          [
            -75.82888140938599,
            6.560492710551715
          ],
          [
            -75.82920090370843,
            6.560821344484065
          ],
          [
            -75.8293727874009,
            6.560776702842423
          ],
          [
            -75.82964945904537,
            6.560594100605892
          ],
          [
            -75.82971398955335,
            6.560306162990724
          ],
          [
            -75.82977852006134,
            6.560018225375556
          ],
          [
            -75.82997601150711,
            6.5598147727441045
          ],
          [
            -75.83015812845707,
            6.559699242173657
          ],
          [
            -75.83026084423845,
            6.559583711603211
          ],
          [
            -75.83034311199042,
            6.559436925783912
          ],
          [
            -75.83042537974238,
            6.559290139964613
          ],
          [
            -75.8305899152463,
            6.558996568326016
          ],
          [
            -75.83077430104238,
            6.558754269640378
          ],
          [
            -75.83102804546085,
            6.558517867176309
          ],
          [
            -75.83067798778711,
            6.558251600685972
          ],
          [
            -75.83032793011336,
            6.557985334195637
          ],
          [
            -75.82997806014862,
            6.55769710897063
          ],
          [
            -75.82930507441505,
            6.557140636829331
          ],
          [
            -75.8286223305381,
            6.556593964985893
          ],
          [
            -75.82822357227583,
            6.556249052979826
          ],
          [
            -75.82776063016621,
            6.5559132501308355
          ],
          [
            -75.82732977998026,
            6.555572892703307
          ],
          [
            -75.8268058429153,
            6.555156167625577
          ],
          [
            -75.82634894872643,
            6.554728341785497
          ],
          [
            -75.82594233669428,
            6.554339368689557
          ],
          [
            -75.82578931283429,
            6.554144882164197
          ],
          [
            -75.8255932267672,
            6.553636964648833
          ],
          [
            -75.8253971407001,
            6.553129047133468
          ],
          [
            -75.8251228379449,
            6.552676633582081
          ],
          [
            -75.82485453035663,
            6.552358164804435
          ],
          [
            -75.82434039889192,
            6.552872257572979
          ],
          [
            -75.82413923624415,
            6.553140234078881
          ],
          [
            -75.82393807359638,
            6.553408210584783
          ],
          [
            -75.8236363466351,
            6.553826047913515
          ],
          [
            -75.82391567493846,
            6.554034966585711
          ],
          [
            -75.82419500324184,
            6.554288288409683
          ],
          [
            -75.82462512698163,
            6.5546410786203655
          ],
          [
            -75.82486812338351,
            6.554811923331955
          ],
          [
            -75.82507087266062,
            6.554960745365703
          ],
          [
            -75.8251621258207,
            6.554932339791261
          ],
          [
            -75.82544495444589,
            6.555152663157422
          ],
          [
            -75.8258664042634,
            6.555509308561948
          ],
          [
            -75.82607712917215,
            6.555687631264211
          ],
          [
            -75.8264003195071,
            6.555949984076314
          ],
          [
            -75.82661157503873,
            6.556119667846015
          ],
          [
            -75.82687879797201,
            6.556335686136917
          ],
          [
            -75.82717180528718,
            6.556570394945462
          ],
          [
            -75.82699841758811,
            6.556879238888789
          ],
          [
            -75.82676053375782,
            6.557253181941759
          ],
          [
            -75.82652264992753,
            6.5576271249947276
          ],
          [
            -75.82631847667508,
            6.557987672046545
          ],
          [
            -75.82604688226694,
            6.558375011100665
          ]
        ],
        "type": "LineString"
      }
    },
    {
      "type": "Feature",
      "properties": {},
      "geometry": {
        "coordinates": [
          [
            -75.83022000904677,
            6.559556435220387
          ],
          [
            -75.83003566743496,
            6.559428240811272
          ],
          [
            -75.82982674694132,
            6.559300046369245
          ],
          [
            -75.8295440898028,
            6.559147433894921
          ],
          [
            -75.82937203763193,
            6.559061970888578
          ],
          [
            -75.82920613018115,
            6.558982612369249
          ],
          [
            -75.82891118360243,
            6.558805581781655
          ],
          [
            -75.8286715395068,
            6.558659073662895
          ],
          [
            -75.8281615277136,
            6.558298907684929
          ],
          [
            -75.82790959417775,
            6.558146294902571
          ],
          [
            -75.8275163320723,
            6.557932636930758
          ],
          [
            -75.82722138549285,
            6.5577556059715505
          ],
          [
            -75.8266806500984,
            6.557456484550585
          ],
          [
            -75.8263611246371,
            6.557279453420847
          ],
          [
            -75.82596171781151,
            6.557035272449468
          ],
          [
            -75.82562375818988,
            6.556839927585415
          ],
          [
            -75.82525507496575,
            6.556606429171943
          ],
          [
            -75.82488639174161,
            6.556372930758471
          ],
          [
            -75.82456072156039,
            6.55615164141232
          ],
          [
            -75.8238417892733,
            6.555702194587514
          ],
          [
            -75.82361136225911,
            6.555605666604665
          ],
          [
            -75.82344084626746,
            6.555368161729697
          ],
          [
            -75.82331747223797,
            6.555089812495282
          ]
        ],
        "type": "LineString"
      }
    },
    {
      "type": "Feature",
      "properties": {},
      "geometry": {
        "coordinates": [
          [
            -75.82400916169138,
            6.556200212235126
          ],
          [
            -75.82418735858302,
            6.555986553429122
          ],
          [
            -75.82432868715195,
            6.555833939940243
          ],
          [
            -75.82463592317161,
            6.55550429464445
          ],
          [
            -75.82490014614909,
            6.555205171872643
          ],
          [
            -75.82510906664275,
            6.554960989885302
          ],
          [
            -75.82535485545849,
            6.554667971342084
          ],
          [
            -75.82555763123133,
            6.554448207322352
          ],
          [
            -75.82572353868207,
            6.55424065232539
          ],
          [
            -75.82582185420878,
            6.554185711282102
          ]
        ],
        "type": "LineString"
      }
    },
    {
      "type": "Feature",
      "properties": {},
      "geometry": {
        "coordinates": [
          [
            -75.82535485876889,
            6.553050261893205
          ],
          [
            -75.82510292523234,
            6.553202876234039
          ],
          [
            -75.82496159666346,
            6.553331072245371
          ],
          [
            -75.82483870225558,
            6.553587464166412
          ],
          [
            -75.82469737368598,
            6.553843855956998
          ],
          [
            -75.82453761094101,
            6.554094143033154
          ],
          [
            -75.82436555876946,
            6.554350534563284
          ],
          [
            -75.82412591467453,
            6.554643553293047
          ],
          [
            -75.82392313890097,
            6.554832794463849
          ],
          [
            -75.8238002444931,
            6.554979303708521
          ],
          [
            -75.82355445567735,
            6.555070871964446
          ],
          [
            -75.82335782462464,
            6.555199067494186
          ]
        ],
        "type": "LineString"
      }
    },
    {
      "type": "Feature",
      "properties": {},
      "geometry": {
        "coordinates": [
          [
            -75.82635644817854,
            6.554735121610577
          ],
          [
            -75.82613523824398,
            6.55500372191203
          ],
          [
            -75.82598162023415,
            6.555235694782141
          ],
          [
            -75.82586487054638,
            6.5554432493649415
          ],
          [
            -75.82564366061251,
            6.555754581077835
          ],
          [
            -75.8254716084409,
            6.556041494443463
          ],
          [
            -75.82534256931294,
            6.556212421477312
          ],
          [
            -75.82523196434602,
            6.556407766585892
          ],
          [
            -75.82507834633549,
            6.556658052396173
          ],
          [
            -75.82497843332358,
            6.55681633651324
          ],
          [
            -75.82487852031167,
            6.556974620630307
          ],
          [
            -75.82481142612875,
            6.557100300591653
          ],
          [
            -75.82474433194582,
            6.5572259805529995
          ]
        ],
        "type": "LineString"
      }
    },
    {
      "type": "Feature",
      "properties": {},
      "geometry": {
        "coordinates": [
          [
            -75.82596027973418,
            6.557039161147614
          ],
          [
            -75.82609931500576,
            6.556780732172868
          ],
          [
            -75.82619798519839,
            6.556571315492391
          ],
          [
            -75.82630114039956,
            6.556397544136956
          ],
          [
            -75.82639532558363,
            6.5561881272944476
          ],
          [
            -75.82648951076723,
            6.55604108988544
          ],
          [
            -75.82662406102975,
            6.555831672893191
          ],
          [
            -75.82674067125758,
            6.555671268329704
          ],
          [
            -75.8268483114678,
            6.555484129606214
          ],
          [
            -75.8269873467389,
            6.555296990813474
          ]
        ],
        "type": "LineString"
      }
    },
    {
      "type": "Feature",
      "properties": {},
      "geometry": {
        "coordinates": [
          [
            -75.82683469049843,
            6.558937616533598
          ],
          [
            -75.82697198798978,
            6.558729006464546
          ],
          [
            -75.82705678938122,
            6.558584584057741
          ],
          [
            -75.82714562893445,
            6.558432138138031
          ],
          [
            -75.82721831584144,
            6.558295739117767
          ],
          [
            -75.82729504091022,
            6.558151316585452
          ],
          [
            -75.82736772781723,
            6.55802294096533
          ],
          [
            -75.82743233840158,
            6.557890553573557
          ]
        ],
        "type": "LineString"
      }
    },
    {
      "type": "Feature",
      "properties": {},
      "geometry": {
        "coordinates": [
          [
            -75.82736734987868,
            6.559286224338479
          ],
          [
            -75.8274602275932,
            6.559169884199406
          ],
          [
            -75.82753291450067,
            6.559085637875171
          ],
          [
            -75.82769847912222,
            6.55884894574443
          ],
          [
            -75.82781558580605,
            6.558660394305178
          ],
          [
            -75.82800537939688,
            6.558391608088726
          ],
          [
            -75.82809825711144,
            6.558259220794
          ],
          [
            -75.82819113482638,
            6.558082704346575
          ],
          [
            -75.82831631783289,
            6.557886129138382
          ],
          [
            -75.82842534819363,
            6.557725659523371
          ],
          [
            -75.8285747601694,
            6.557476931518337
          ],
          [
            -75.82869590501456,
            6.557312450026487
          ],
          [
            -75.82884127882878,
            6.55709982747954
          ],
          [
            -75.8289139657359,
            6.556993516206067
          ],
          [
            -75.828986652643,
            6.556887204932593
          ]
        ],
        "type": "LineString"
      }
    },
    {
      "type": "Feature",
      "properties": {},
      "geometry": {
        "coordinates": [
          [
            -75.82485677806004,
            6.555252219258847
          ],
          [
            -75.82476224637021,
            6.555187202103497
          ],
          [
            -75.82465317134245,
            6.555111348744532
          ],
          [
            -75.82459136216086,
            6.5550680039621625
          ],
          [
            -75.82446774379684,
            6.555010210914034
          ],
          [
            -75.82432231042762,
            6.554945193726354
          ]
        ],
        "type": "LineString"
      }
    },
    {
      "type": "Feature",
      "properties": {},
      "geometry": {
        "coordinates": [
          [
            -75.82963237911116,
            6.557418713827516
          ],
          [
            -75.8294870052967,
            6.55761930096179
          ],
          [
            -75.82942239471282,
            6.557743664944283
          ],
          [
            -75.82930528802896,
            6.557936228469501
          ],
          [
            -75.82922048663707,
            6.558052568896585
          ],
          [
            -75.82910337995372,
            6.558209026669431
          ],
          [
            -75.8289983877543,
            6.558369496128819
          ],
          [
            -75.82888128107047,
            6.558521942067742
          ],
          [
            -75.82874398357954,
            6.558702470092584
          ],
          [
            -75.8286066860882,
            6.558911080172763
          ],
          [
            -75.82849765572745,
            6.559079572866992
          ],
          [
            -75.82838458720538,
            6.55925207723277
          ],
          [
            -75.8282351752296,
            6.559476733991033
          ],
          [
            -75.82815706235701,
            6.559618509369816
          ],
          [
            -75.82807894948441,
            6.559760284748599
          ],
          [
            -75.82802768838121,
            6.5599405920951845
          ],
          [
            -75.82797642727803,
            6.56012089944177
          ]
        ],
        "type": "LineString"
      }
    },
    {
      "type": "Feature",
      "properties": {},
      "geometry": {
        "coordinates": [
          [
            -75.82919835827148,
            6.558089185833822
          ],
          [
            -75.82934557243955,
            6.558180592627366
          ],
          [
            -75.82950382767059,
            6.5583049058398615
          ],
          [
            -75.82966576325565,
            6.5584292190213915
          ],
          [
            -75.82983137919473,
            6.558546219633968
          ],
          [
            -75.8299933147798,
            6.558674189022895
          ],
          [
            -75.83010004505184,
            6.558769251976912
          ],
          [
            -75.83022517709405,
            6.558853346112372
          ],
          [
            -75.83037607161698,
            6.5589630340944325
          ],
          [
            -75.83053800720207,
            6.559098315906226
          ]
        ],
        "type": "LineString"
      }
    },
    {
      "type": "Feature",
      "properties": {},
      "geometry": {
        "coordinates": [
          [
            -75.83025716929352,
            6.557932527885484
          ],
          [
            -75.83012099618838,
            6.558122654057499
          ],
          [
            -75.82999954449937,
            6.558301811345245
          ],
          [
            -75.82988545351927,
            6.558473656029605
          ],
          [
            -75.82983024820625,
            6.558546781410229
          ],
          [
            -75.82963518943318,
            6.558780782552773
          ],
          [
            -75.82953213951518,
            6.558934345743737
          ],
          [
            -75.8294511717231,
            6.559044033707991
          ],
          [
            -75.82942172888912,
            6.55908790888742
          ],
          [
            -75.8293149986171,
            6.559278034617819
          ],
          [
            -75.82921194869994,
            6.5594681602765235
          ],
          [
            -75.82909233718755,
            6.559705817110206
          ],
          [
            -75.82895064355093,
            6.559899598820664
          ],
          [
            -75.82879790885136,
            6.560118974352257
          ],
          [
            -75.8286451741518,
            6.56033834988385
          ]
        ],
        "type": "LineString"
      }
    },
    {
      "type": "Feature",
      "properties": {},
      "geometry": {
        "coordinates": [
          [
            -75.82909644929327,
            6.5597171551254405
          ],
          [
            -75.82925838487834,
            6.55979028032273
          ],
          [
            -75.8294203204634,
            6.559863405509276
          ],
          [
            -75.82958225604848,
            6.559951155719162
          ],
          [
            -75.82974787198756,
            6.560024280882104
          ],
          [
            -75.82978099517558,
            6.560031593398307
          ]
        ],
        "type": "LineString"
      }
    },
    {
      "type": "Feature",
      "properties": {},
      "geometry": {
        "coordinates": [
          [
            -75.82935967573191,
            6.557855269410737
          ],
          [
            -75.82953265237907,
            6.557968613885265
          ],
          [
            -75.82971667008918,
            6.558100239694355
          ],
          [
            -75.8298565235492,
            6.558187990214719
          ],
          [
            -75.83000373771729,
            6.55830499088475
          ],
          [
            -75.83010678763529,
            6.55836349120905
          ],
          [
            -75.83020247684439,
            6.558429304066252
          ]
        ],
        "type": "LineString"
      }
    }
  ]
}
